[{"OBJECT_NAME":"STARLINK-3156","OBJECT_ID":"2021-104BC","EPOCH":"2026-01-15T05:01:21.011808","MEAN_MOTION":15.08837474,"ECCENTRICITY":0.0001211,"INCLINATION":53.218,"RA_OF_ASC_NODE":99.2056,"ARG_OF_PERICENTER":97.216,"MEAN_ANOMALY":262.897,"EPHEMERIS_TYPE":0,"CLASSIFICATION_TYPE":"U","NORAD_CAT_ID":49458,"ELEMENT_SET_NO":999,"REV_AT_EPOCH":23070,"BSTAR":7.5997e-5,"MEAN_MOTION_DOT":9.22e-6,"MEAN_MOTION_DDOT":0},{"OBJECT_NAME":"STARLINK-3141","OBJECT_ID":"2021-104BD","EPOCH":"2026-01-15T04:45:27.450432","MEAN_MOTION":15.08836333,"ECCENTRICITY":0.000126,"INCLINATION":53.2192,"RA_OF_ASC_NODE":99.254,"ARG_OF_PERICENTER":87.374,"MEAN_ANOMALY":272.7396,"EPHEMERIS_TYPE":0,"CLASSIFICATION_TYPE":"U","NORAD_CAT_ID":49459,"ELEMENT_SET_NO":999,"REV_AT_EPOCH":23070,"BSTAR":4.2827e-5,"MEAN_MOTION_DOT":3.94e-6,"MEAN_MOTION_DDOT":0},{"OBJECT_NAME":"STARLINK-3140","OBJECT_ID":"2021-104BE","EPOCH":"2026-01-14T12:46:18.199776","MEAN_MOTION":15.08827955,"ECCENTRICITY":0.0001223,"INCLINATION":53.218,"RA_OF_ASC_NODE":102.2431,"ARG_OF_PERICENTER":102.4244,"MEAN_ANOMALY":257.6885,"EPHEMERIS_TYPE":0,"CLASSIFICATION_TYPE":"U","NORAD_CAT_ID":49460,"ELEMENT_SET_NO":999,"REV_AT_EPOCH":23059,"BSTAR":0.00014187,"MEAN_MOTION_DOT":1.97e-5,"MEAN_MOTION_DDOT":0},{"OBJECT_NAME":"STARLINK-3219","OBJECT_ID":"2021-115A","EPOCH":"2026-01-14T23:58:00.682464","MEAN_MOTION":15.08839883,"ECCENTRICITY":0.0001464,"INCLINATION":53.2198,"RA_OF_ASC_NODE":30.3718,"ARG_OF_PERICENTER":90.3559,"MEAN_ANOMALY":269.7601,"EPHEMERIS_TYPE":0,"CLASSIFICATION_TYPE":"U","NORAD_CAT_ID":49724,"ELEMENT_SET_NO":999,"REV_AT_EPOCH":22742,"BSTAR":5.3439e-5,"MEAN_MOTION_DOT":5.63e-6,"MEAN_MOTION_DDOT":0},{"OBJECT_NAME":"STARLINK-3218","OBJECT_ID":"2021-115B","EPOCH":"2026-01-14T10:11:19.432608","MEAN_MOTION":15.0883421,"ECCENTRICITY":0.00012677,"INCLINATION":53.2185,"RA_OF_ASC_NODE":32.8324,"ARG_OF_PERICENTER":95.8791,"MEAN_ANOMALY":264.2346,"EPHEMERIS_TYPE":0,"CLASSIFICATION_TYPE":"U","NORAD_CAT_ID":49725,"ELEMENT_SET_NO":999,"REV_AT_EPOCH":22734,"BSTAR":0.00010967245,"MEAN_MOTION_DOT":1.458e-5,"MEAN_MOTION_DDOT":0},{"OBJECT_NAME":"STARLINK-3242","OBJECT_ID":"2021-115D","EPOCH":"2026-01-14T18:38:41.667360","MEAN_MOTION":15.08837045,"ECCENTRICITY":0.0001282,"INCLINATION":53.2181,"RA_OF_ASC_NODE":41.1458,"ARG_OF_PERICENTER":91.1717,"MEAN_ANOMALY":268.9422,"EPHEMERIS_TYPE":0,"CLASSIFICATION_TYPE":"U","NORAD_CAT_ID":49727,"ELEMENT_SET_NO":999,"REV_AT_EPOCH":22725,"BSTAR":6.9494e-5,"MEAN_MOTION_DOT":8.18e-6,"MEAN_MOTION_DDOT":0},{"OBJECT_NAME":"STARLINK-3240","OBJECT_ID":"2021-115E","EPOCH":"2026-01-15T01:05:32.448480","MEAN_MOTION":15.08836708,"ECCENTRICITY":0.0001256,"INCLINATION":53.2183,"RA_OF_ASC_NODE":39.9391,"ARG_OF_PERICENTER":100.6615,"MEAN_ANOMALY":259.4518,"EPHEMERIS_TYPE":0,"CLASSIFICATION_TYPE":"U","NORAD_CAT_ID":49728,"ELEMENT_SET_NO":999,"REV_AT_EPOCH":22729,"BSTAR":8.0644e-5,"MEAN_MOTION_DOT":9.96e-6,"MEAN_MOTION_DDOT":0},{"OBJECT_NAME":"STARLINK-3251","OBJECT_ID":"2021-115F","EPOCH":"2026-01-15T00:54:54.762912","MEAN_MOTION":15.08834678,"ECCENTRICITY":0.0001656,"INCLINATION":53.2202,"RA_OF_ASC_NODE":39.8576,"ARG_OF_PERICENTER":93.1417,"MEAN_ANOMALY":266.9764,"EPHEMERIS_TYPE":0,"CLASSIFICATION_TYPE":"U","NORAD_CAT_ID":49729,"ELEMENT_SET_NO":999,"REV_AT_EPOCH":22729,"BSTAR":-2.6647e-5,"MEAN_MOTION_DOT":-7.12e-6,"MEAN_MOTION_DDOT":0},{"OBJECT_NAME":"STARLINK-3249","OBJECT_ID":"2021-115G","EPOCH":"2026-01-15T01:47:57.726816","MEAN_MOTION":15.08840031,"ECCENTRICITY":0.0001371,"INCLINATION":53.2183,"RA_OF_ASC_NODE":39.999,"ARG_OF_PERICENTER":89.54,"MEAN_ANOMALY":270.575,"EPHEMERIS_TYPE":0,"CLASSIFICATION_TYPE":"U","NORAD_CAT_ID":49730,"ELEMENT_SET_NO":999,"REV_AT_EPOCH":22729,"BSTAR":5.9381e-5,"MEAN_MOTION_DOT":6.57e-6,"MEAN_MOTION_DDOT":0},{"OBJECT_NAME":"STARLINK-3246","OBJECT_ID":"2021-115J","EPOCH":"2026-01-15T01:58:33.237696","MEAN_MOTION":15.08841545,"ECCENTRICITY":0.0001617,"INCLINATION":53.22,"RA_OF_ASC_NODE":39.928,"ARG_OF_PERICENTER":76.9444,"MEAN_ANOMALY":283.1728,"EPHEMERIS_TYPE":0,"CLASSIFICATION_TYPE":"U","NORAD_CAT_ID":49732,"ELEMENT_SET_NO":999,"REV_AT_EPOCH":22729,"BSTAR":8.6578e-5,"MEAN_MOTION_DOT":1.09e-5,"MEAN_MOTION_DDOT":0},{"OBJECT_NAME":"STARLINK-3252","OBJECT_ID":"2021-115K","EPOCH":"2026-01-15T01:26:44.100096","MEAN_MOTION":15.08843941,"ECCENTRICITY":0.0001231,"INCLINATION":53.2181,"RA_OF_ASC_NODE":39.8714,"ARG_OF_PERICENTER":90.9995,"MEAN_ANOMALY":269.1138,"EPHEMERIS_TYPE":0,"CLASSIFICATION_TYPE":"U","NORAD_CAT_ID":49733,"ELEMENT_SET_NO":999,"REV_AT_EPOCH":22729,"BSTAR":9.5995e-5,"MEAN_MOTION_DOT":1.24e-5,"MEAN_MOTION_DDOT":0},{"OBJECT_NAME":"STARLINK-3238","OBJECT_ID":"2021-115L","EPOCH":"2026-01-14T17:57:37.743264","MEAN_MOTION":15.08838199,"ECCENTRICITY":0.000127,"INCLINATION":53.2188,"RA_OF_ASC_NODE":31.2989,"ARG_OF_PERICENTER":91.9464,"MEAN_ANOMALY":268.1674,"EPHEMERIS_TYPE":0,"CLASSIFICATION_TYPE":"U","NORAD_CAT_ID":49734,"ELEMENT_SET_NO":999,"REV_AT_EPOCH":22739,"BSTAR":9.3275e-5,"MEAN_MOTION_DOT":1.197e-5,"MEAN_MOTION_DDOT":0},{"OBJECT_NAME":"STARLINK-3113","OBJECT_ID":"2021-115M","EPOCH":"2026-01-15T01:16:07.353696","MEAN_MOTION":15.08841462,"ECCENTRICITY":0.0001335,"INCLINATION":53.2188,"RA_OF_ASC_NODE":39.789,"ARG_OF_PERICENTER":81.27,"MEAN_ANOMALY":278.8443,"EPHEMERIS_TYPE":0,"CLASSIFICATION_TYPE":"U","NORAD_CAT_ID":49735,"ELEMENT_SET_NO":999,"REV_AT_EPOCH":22729,"BSTAR":0.00017192,"MEAN_MOTION_DOT":2.449e-5,"MEAN_MOTION_DDOT":0},{"OBJECT_NAME":"STARLINK-3148","OBJECT_ID":"2021-115N","EPOCH":"2026-01-14T08:19:59.647296","MEAN_MOTION":15.08834008,"ECCENTRICITY":0.0001371,"INCLINATION":53.2198,"RA_OF_ASC_NODE":32.9591,"ARG_OF_PERICENTER":94.5105,"MEAN_ANOMALY":265.6044,"EPHEMERIS_TYPE":0,"CLASSIFICATION_TYPE":"U","NORAD_CAT_ID":49736,"ELEMENT_SET_NO":999,"REV_AT_EPOCH":22733,"BSTAR":6.1877089e-5,"MEAN_MOTION_DOT":6.97e-6,"MEAN_MOTION_DDOT":0},{"OBJECT_NAME":"STARLINK-3225","OBJECT_ID":"2021-115P","EPOCH":"2026-01-14T08:30:36.772992","MEAN_MOTION":15.08833642,"ECCENTRICITY":0.00012181,"INCLINATION":53.2182,"RA_OF_ASC_NODE":33.0416,"ARG_OF_PERICENTER":88.4143,"MEAN_ANOMALY":271.6988,"EPHEMERIS_TYPE":0,"CLASSIFICATION_TYPE":"U","NORAD_CAT_ID":49737,"ELEMENT_SET_NO":999,"REV_AT_EPOCH":22733,"BSTAR":2.6997294e-5,"MEAN_MOTION_DOT":1.42e-6,"MEAN_MOTION_DDOT":0},{"OBJECT_NAME":"STARLINK-3143","OBJECT_ID":"2021-115Q","EPOCH":"2026-01-15T01:02:57.984288","MEAN_MOTION":15.08881311,"ECCENTRICITY":8.32e-5,"INCLINATION":53.2178,"RA_OF_ASC_NODE":30.1514,"ARG_OF_PERICENTER":67.6567,"MEAN_ANOMALY":292.4514,"EPHEMERIS_TYPE":0,"CLASSIFICATION_TYPE":"U","NORAD_CAT_ID":49738,"ELEMENT_SET_NO":999,"REV_AT_EPOCH":22743,"BSTAR":-0.00079368,"MEAN_MOTION_DOT":-0.00012911,"MEAN_MOTION_DDOT":0},{"OBJECT_NAME":"STARLINK-3155","OBJECT_ID":"2021-115R","EPOCH":"2026-01-14T19:21:06.879168","MEAN_MOTION":15.08826338,"ECCENTRICITY":0.0001532,"INCLINATION":53.2206,"RA_OF_ASC_NODE":41.0129,"ARG_OF_PERICENTER":82.1287,"MEAN_ANOMALY":277.9879,"EPHEMERIS_TYPE":0,"CLASSIFICATION_TYPE":"U","NORAD_CAT_ID":49739,"ELEMENT_SET_NO":999,"REV_AT_EPOCH":22725,"BSTAR":-1.6872e-5,"MEAN_MOTION_DOT":-5.56e-6,"MEAN_MOTION_DDOT":0},{"OBJECT_NAME":"STARLINK-3226","OBJECT_ID":"2021-115S","EPOCH":"2026-01-15T00:47:02.200704","MEAN_MOTION":15.08841466,"ECCENTRICITY":0.0001227,"INCLINATION":53.2182,"RA_OF_ASC_NODE":29.9666,"ARG_OF_PERICENTER":86.8751,"MEAN_ANOMALY":273.2382,"EPHEMERIS_TYPE":0,"CLASSIFICATION_TYPE":"U","NORAD_CAT_ID":49740,"ELEMENT_SET_NO":999,"REV_AT_EPOCH":22743,"BSTAR":9.4599e-6,"MEAN_MOTION_DOT":-1.37e-6,"MEAN_MOTION_DDOT":0},{"OBJECT_NAME":"STARLINK-3244","OBJECT_ID":"2021-115T","EPOCH":"2026-01-15T00:41:44.575296","MEAN_MOTION":15.08840502,"ECCENTRICITY":0.0001451,"INCLINATION":53.2185,"RA_OF_ASC_NODE":30.0244,"ARG_OF_PERICENTER":83.6945,"MEAN_ANOMALY":276.4213,"EPHEMERIS_TYPE":0,"CLASSIFICATION_TYPE":"U","NORAD_CAT_ID":49741,"ELEMENT_SET_NO":999,"REV_AT_EPOCH":22743,"BSTAR":5.2905e-5,"MEAN_MOTION_DOT":5.54e-6,"MEAN_MOTION_DDOT":0},{"OBJECT_NAME":"STARLINK-3202","OBJECT_ID":"2021-115U","EPOCH":"2026-01-15T01:01:33.496320","MEAN_MOTION":15.08841617,"ECCENTRICITY":0.0001288,"INCLINATION":53.2183,"RA_OF_ASC_NODE":29.951,"ARG_OF_PERICENTER":86.4922,"MEAN_ANOMALY":273.6218,"EPHEMERIS_TYPE":0,"CLASSIFICATION_TYPE":"U","NORAD_CAT_ID":49742,"ELEMENT_SET_NO":999,"REV_AT_EPOCH":22743,"BSTAR":7.9322e-5,"MEAN_MOTION_DOT":9.75e-6,"MEAN_MOTION_DDOT":0},{"OBJECT_NAME":"STARLINK-3239","OBJECT_ID":"2021-115V","EPOCH":"2026-01-15T03:47:12.305184","MEAN_MOTION":15.08842346,"ECCENTRICITY":0.0001274,"INCLINATION":53.2178,"RA_OF_ASC_NODE":29.3672,"ARG_OF_PERICENTER":84.8545,"MEAN_ANOMALY":275.2593,"EPHEMERIS_TYPE":0,"CLASSIFICATION_TYPE":"U","NORAD_CAT_ID":49743,"ELEMENT_SET_NO":999,"REV_AT_EPOCH":22745,"BSTAR":6.5695e-5,"MEAN_MOTION_DOT":7.58e-6,"MEAN_MOTION_DDOT":0},{"OBJECT_NAME":"STARLINK-3231","OBJECT_ID":"2021-115W","EPOCH":"2026-01-15T00:57:37.218240","MEAN_MOTION":15.0884009,"ECCENTRICITY":0.0001511,"INCLINATION":53.2193,"RA_OF_ASC_NODE":29.8576,"ARG_OF_PERICENTER":80.7652,"MEAN_ANOMALY":279.3511,"EPHEMERIS_TYPE":0,"CLASSIFICATION_TYPE":"U","NORAD_CAT_ID":49744,"ELEMENT_SET_NO":999,"REV_AT_EPOCH":22743,"BSTAR":2.5397e-5,"MEAN_MOTION_DOT":1.16e-6,"MEAN_MOTION_DDOT":0},{"OBJECT_NAME":"STARLINK-3241","OBJECT_ID":"2021-115X","EPOCH":"2026-01-15T00:52:20.023104","MEAN_MOTION":15.08841898,"ECCENTRICITY":0.0001399,"INCLINATION":53.218,"RA_OF_ASC_NODE":29.9511,"ARG_OF_PERICENTER":83.0888,"MEAN_ANOMALY":277.0263,"EPHEMERIS_TYPE":0,"CLASSIFICATION_TYPE":"U","NORAD_CAT_ID":49745,"ELEMENT_SET_NO":999,"REV_AT_EPOCH":22743,"BSTAR":4.6248e-5,"MEAN_MOTION_DOT":4.48e-6,"MEAN_MOTION_DDOT":0},{"OBJECT_NAME":"STARLINK-3233","OBJECT_ID":"2021-115Y","EPOCH":"2026-01-15T01:22:45.394176","MEAN_MOTION":15.08839275,"ECCENTRICITY":0.0001132,"INCLINATION":53.2193,"RA_OF_ASC_NODE":29.8856,"ARG_OF_PERICENTER":89.5109,"MEAN_ANOMALY":270.6013,"EPHEMERIS_TYPE":0,"CLASSIFICATION_TYPE":"U","NORAD_CAT_ID":49746,"ELEMENT_SET_NO":999,"REV_AT_EPOCH":22743,"BSTAR":4.3723e-5,"MEAN_MOTION_DOT":4.08e-6,"MEAN_MOTION_DDOT":0}]
